QZS-1R                  
1 49336U 21096A   23281.81855066 -.00000227  00000+0  00000+0 0  9998
2 49336  35.4247  94.3847 0745683 269.9231  82.4859  1.00281499  7166
